OBJECT_NAME,OBJECT_ID,EPOCH,MEAN_MOTION,ECCENTRICITY,INCLINATION,RA_OF_ASC_NODE,ARG_OF_PERICENTER,MEAN_ANOMALY,EPHEMERIS_TYPE,CLASSIFICATION_TYPE,NORAD_CAT_ID,ELEMENT_SET_NO,REV_AT_EPOCH,BSTAR,MEAN_MOTION_DOT,MEAN_MOTION_DDOT
SL-16 R/B,1994-077B,2026-06-18T14:30:43.864704,14.15572646,.00029583,70.9810,140.1801,327.4978,32.5963,0,U,23405,999,63051,.11290014E-3,.173E-5,0
ARIANE 40+ R/B,1995-021B,2026-06-18T10:25:36.631200,14.39834002,.00065454,98.4412,239.4913,189.8914,180.7389,0,U,23561,999,63374,.79759429E-4,.207E-5,0
SL-16 R/B,1995-058B,2026-06-18T14:47:48.033888,14.15509374,.00138482,71.0222,328.3571,318.4932,41.5138,0,U,23705,999,58213,.16187204E-3,.269E-5,0
SL-16 R/B,1996-051B,2026-06-18T09:02:46.974912,14.12446258,.00155665,70.7642,322.1305,335.1343,24.9024,0,U,24298,999,53586,.87758291E-4,.113E-5,0
ORBVIEW 2 (SEASTAR),1997-037A,2026-06-18T01:34:16.013568,14.35553615,.00032127,98.8688,336.1088,114.2817,245.8703,0,U,24883,999,52287,.70624028E-4,.157E-5,0
SL-16 R/B,1998-043G,2026-06-18T08:17:05.449344,14.26068772,.00109459,98.8364,123.5144,83.3511,276.8914,0,U,25400,999,45333,.31615415E-4,.3E-6,0
SL-16 R/B,1998-045B,2026-06-18T10:28:47.134560,14.16202797,.00093253,71.0116,329.7015,240.1394,119.8803,0,U,25407,999,44136,-.81836173E-4,-.21E-5,0
ISS (ZARYA),1998-067A,2026-06-18T11:30:33.586560,15.49298053,.00047553,51.6334,293.6965,201.5062,158.5728,0,U,25544,999,57195,.16793568E-3,.891E-4,0
CZ-4B R/B,1999-025C,2026-06-18T15:06:31.171680,14.18283756,.00380152,98.6483,211.4317,55.6256,56.3262,0,U,25732,999,40247,.32913297E-4,.26E-6,0
OKEAN-O,1999-039A,2026-06-18T10:17:40.892064,14.80468675,.00015662,97.9316,228.2126,71.7295,288.4087,0,U,25860,999,44929,.70327085E-4,.486E-5,0
SL-16 R/B,1999-039B,2026-06-18T10:47:22.370208,14.81846217,.00134345,97.9837,228.3090,292.4611,67.5179,0,U,25861,999,45178,.51772709E-4,.356E-5,0
DELTA 2 R/B,1999-041E,2026-06-18T12:29:10.945248,14.12017990,.05008428,51.7653,258.4715,285.9575,68.6741,0,U,25876,999,37727,.10167593E-3,.395E-5,0
HELIOS 1B,1999-064A,2026-06-18T10:57:03.202848,14.88009464,.00025096,98.1613,74.6328,89.5128,270.6375,0,U,25977,999,70024,.11965027E-3,.104E-4,0
TERRA,1999-068A,2026-06-18T14:38:23.239680,14.61104174,.00016947,97.9456,219.0999,184.5927,327.8653,0,U,25994,999,40981,.72493289E-4,.312E-5,0
SL-16 R/B,2000-006B,2026-06-18T06:23:24.490752,14.15834136,.00155839,71.0019,246.3563,21.3987,338.7784,0,U,26070,999,36279,.36930408E-4,.25E-6,0
TITAN 4B R/B,2000-047B,2026-06-18T14:00:19.192608,15.10203961,.00458128,67.9884,116.6428,285.6315,73.9781,0,U,26474,999,40814,.15338889E-3,.2433E-4,0
ENVISAT,2002-009A,2026-06-18T15:52:24.305952,14.39065080,.00013521,98.3835,120.9470,88.7177,84.4689,0,U,27386,999,27369,.34196705E-4,.63E-6,0
IDEFIX & ARIANE 42P R/B,2002-021B,2026-06-18T12:40:11.661600,14.31082617,.00106016,98.5942,106.9965,249.4836,110.5210,0,U,27422,999,25844,.77800042E-4,.161E-5,0
AQUA,2002-022A,2026-06-18T13:26:43.977408,14.62159941,.00010516,98.4277,138.8704,53.8531,10.2072,0,U,27424,999,28347,.13021297E-3,.606E-5,0
CZ-4B R/B,2002-024C,2026-06-18T10:23:29.461632,14.14564545,.00512162,98.8699,222.2451,96.7816,274.4228,0,U,27432,999,24348,.33991982E-4,.22E-6,0
MIDORI II (ADEOS-II),2002-056A,2026-06-18T14:35:39.686208,14.29350259,.00021918,98.7878,128.8800,75.1508,284.9916,0,U,27597,999,22471,.93224639E-4,.192E-5,0
H-2A R/B,2002-056E,2026-06-18T15:19:35.338944,14.33822548,.00692481,98.3312,126.2601,220.1834,313.1521,0,U,27601,999,22857,.65547572E-4,.145E-5,0
CZ-4B R/B,2003-049C,2026-06-18T14:33:22.430304,14.55100959,.00469345,98.6896,168.5095,284.1570,75.4414,0,U,28059,999,20127,.60575283E-4,.213E-5,0
CZ-2C R/B,2004-012C,2026-06-18T04:10:41.547072,15.79152385,.00094636,97.7074,244.9520,279.2126,80.8069,0,U,28222,999,22005,.45994027E-3,.8258E-3,0
SL-16 R/B,2004-021B,2026-06-18T00:14:09.191904,14.14608016,.00072414,71.0007,21.9627,253.9271,106.1054,0,U,28353,999,13702,-.95743137E-4,-.232E-5,0
CZ-4B R/B,2004-035C,2026-06-18T01:08:54.895776,15.30637383,.00297813,97.3361,202.1117,334.8435,25.1353,0,U,28415,999,19525,.21515496E-3,.638E-4,0
CZ-2C R/B,2004-046B,2026-06-18T10:53:12.353280,14.27026703,.0138547,98.1944,78.1554,216.4989,142.6689,0,U,28480,999,12287,.36298127E-4,.56E-6,0
ARIANE 5 R/B,2004-049H,2026-06-18T11:27:30.949920,14.85450517,.00844205,98.2721,341.7800,25.2794,335.2514,0,U,28499,999,16075,.5845682E-4,.472E-5,0
CZ-2D R/B,2005-024B,2026-06-18T11:51:52.451712,15.69679999,.00031205,97.3483,188.9879,51.6313,308.5229,0,U,28738,999,15554,.39353261E-3,.46666E-3,0
ALOS (DAICHI),2006-002A,2026-06-18T14:06:40.186368,14.70052884,.00013975,98.1324,125.1509,56.8855,303.2485,0,U,28931,999,8830,.146352E-3,.829E-5,0
