SL-16 R/B               
1 23405U 94077B   26169.60467436  .00000173  00000+0  11290-3 0  9997
2 23405  70.9810 140.1801 0002958 327.4978  32.5963 14.15572646630514
ARIANE 40+ R/B          
1 23561U 95021B   26169.43445175  .00000207  00000+0  79759-4 0  9990
2 23561  98.4412 239.4913 0006545 189.8914 180.7389 14.39834002633741
SL-16 R/B               
1 23705U 95058B   26169.61652817  .00000269  00000+0  16187-3 0  9996
2 23705  71.0222 328.3571 0013848 318.4932  41.5138 14.15509374582136
SL-16 R/B               
1 24298U 96051B   26169.37693258  .00000113  00000+0  87758-4 0  9996
2 24298  70.7642 322.1305 0015566 335.1343  24.9024 14.12446258535869
ORBVIEW 2 (SEASTAR)     
1 24883U 97037A   26169.06546312  .00000157  00000+0  70624-4 0  9997
2 24883  98.8688 336.1088 0003212 114.2817 245.8703 14.35553615522876
SL-16 R/B               
1 25400U 98043G   26169.34520196  .00000030  00000+0  31615-4 0  9991
2 25400  98.8364 123.5144 0010945  83.3511 276.8914 14.26068772453339
SL-16 R/B               
1 25407U 98045B   26169.43665665 -.00000210  00000+0 -81836-4 0  9993
2 25407  71.0116 329.7015 0009325 240.1394 119.8803 14.16202797441362
ISS (ZARYA)             
1 25544U 98067A   26169.47955540  .00008910  00000+0  16794-3 0  9990
2 25544  51.6334 293.6965 0004755 201.5062 158.5728 15.49298053571950
CZ-4B R/B               
1 25732U 99025C   26169.62952745  .00000026  00000+0  32913-4 0  9997
2 25732  98.6483 211.4317 0038015  55.6256  56.3262 14.18283756402470
OKEAN-O                 
1 25860U 99039A   26169.42894551  .00000486  00000+0  70327-4 0  9993
2 25860  97.9316 228.2126 0001566  71.7295 288.4087 14.80468675449294
SL-16 R/B               
1 25861U 99039B   26169.44956447  .00000356  00000+0  51773-4 0  9999
2 25861  97.9837 228.3090 0013434 292.4611  67.5179 14.81846217451783
DELTA 2 R/B             
1 25876U 99041E   26169.52026557  .00000395  00000+0  10168-3 0  9992
2 25876  51.7653 258.4715 0500842 285.9575  68.6741 14.12017990377271
HELIOS 1B               
1 25977U 99064A   26169.45628707  .00001040  00000+0  11965-3 0  9990
2 25977  98.1613  74.6328 0002509  89.5128 270.6375 14.88009464700246
TERRA                   
1 25994U 99068A   26169.60999120  .00000312  00000+0  72493-4 0  9995
2 25994  97.9456 219.0999 0001694 184.5927 327.8653 14.61104174409811
SL-16 R/B               
1 26070U 00006B   26169.26625568  .00000025  00000+0  36930-4 0  9996
2 26070  71.0019 246.3563 0015583  21.3987 338.7784 14.15834136362799
TITAN 4B R/B            
1 26474U 00047B   26169.58355547  .00002433  00000+0  15339-3 0  9995
2 26474  67.9884 116.6428 0045812 285.6315  73.9781 15.10203961408145
ENVISAT                 
1 27386U 02009A   26169.66139243  .00000063  00000+0  34197-4 0  9991
2 27386  98.3835 120.9470 0001352  88.7177  84.4689 14.39065080273698
IDEFIX & ARIANE 42P R/B 
1 27422U 02021B   26169.52791275  .00000161  00000+0  77800-4 0  9997
2 27422  98.5942 106.9965 0010601 249.4836 110.5210 14.31082617258442
AQUA                    
1 27424U 02022A   26169.56023122  .00000606  00000+0  13021-3 0  9991
2 27424  98.4277 138.8704 0001051  53.8531  10.2072 14.62159941283479
CZ-4B R/B               
1 27432U 02024C   26169.43297988  .00000022  00000+0  33992-4 0  9993
2 27432  98.8699 222.2451 0051216  96.7816 274.4228 14.14564545243488
MIDORI II (ADEOS-II)    
1 27597U 02056A   26169.60809822  .00000192  00000+0  93225-4 0  9998
2 27597  98.7878 128.8800 0002191  75.1508 284.9916 14.29350259224710
H-2A R/B                
1 27601U 02056E   26169.63860346  .00000145  00000+0  65548-4 0  9990
2 27601  98.3312 126.2601 0069248 220.1834 313.1521 14.33822548228571
CZ-4B R/B               
1 28059U 03049C   26169.60650961  .00000213  00000+0  60575-4 0  9999
2 28059  98.6896 168.5095 0046934 284.1570  75.4414 14.55100959201275
CZ-2C R/B               
1 28222U 04012C   26169.17409198  .00082580  00000+0  45994-3 0  9992
2 28222  97.7074 244.9520 0009463 279.2126  80.8069 15.79152385220055
SL-16 R/B               
1 28353U 04021B   26169.00982861 -.00000232  00000+0 -95743-4 0  9996
2 28353  71.0007  21.9627 0007241 253.9271 106.1054 14.14608016137029
CZ-4B R/B               
1 28415U 04035C   26169.04785759  .00006380  00000+0  21515-3 0  9994
2 28415  97.3361 202.1117 0029781 334.8435  25.1353 15.30637383195252
CZ-2C R/B               
1 28480U 04046B   26169.45361520  .00000056  00000+0  36298-4 0  9998
2 28480  98.1944  78.1554 0138547 216.4989 142.6689 14.27026703122874
ARIANE 5 R/B            
1 28499U 04049H   26169.47744155  .00000472  00000+0  58457-4 0  9995
2 28499  98.2721 341.7800 0084420  25.2794 335.2514 14.85450517160755
CZ-2D R/B               
1 28738U 05024B   26169.49435708  .00046666  00000+0  39353-3 0  9996
2 28738  97.3483 188.9879 0003120  51.6313 308.5229 15.69679999155548
ALOS (DAICHI)           
1 28931U 06002A   26169.58796512  .00000829  00000+0  14635-3 0  9998
2 28931  98.1324 125.1509 0001397  56.8855 303.2485 14.70052884 88305
